start=new Date('2021-11-29T00:00:00.000Z').valueOf();
sats=[{"APOAPSIS":"548.637","MEAN_ELEMENT_THEORY":"SGP4","PERIOD":"95.593","CLASSIFICATION_TYPE":"U","OBJECT_ID":"2020-012AC","MEAN_MOTION":"15.06394266","OBJECT_TYPE":"PAYLOAD","NORAD_CAT_ID":"45204","REF_FRAME":"TEME","ARG_OF_PERICENTER":"71.5840","SITE":"AFETR","MEAN_MOTION_DDOT":"0.0000000000000","PERIAPSIS":"545.825","RCS_SIZE":"LARGE","BSTAR":"0.00008264000000","GP_ID":"190684464","ELEMENT_SET_NO":"999","REV_AT_EPOCH":"9973","FILE":"3226391","TLE_LINE1":"1 45204U 20012AC  21332.88769078  .00000949  00000-0  82640-4 0  9990","DECAY_DATE":null,"ECCENTRICITY":"0.00020300","COUNTRY_CODE":"US","MEAN_MOTION_DOT":"0.00000949","LAUNCH_DATE":"2020-02-17","RA_OF_ASC_NODE":"197.8069","MEAN_ANOMALY":"288.5369","TLE_LINE2":"2 45204  53.0530 197.8069 0002030  71.5840 288.5369 15.06394266 99734","SEMIMAJOR_AXIS":"6925.366","EPOCH":"2021-11-28T21:18:16.483392","OBJECT_NAME":"STARLINK-1206","INCLINATION":"53.0530","TIME_SYSTEM":"UTC","CENTER_NAME":"EARTH","EPHEMERIS_TYPE":"0"},{"MEAN_ANOMALY":"285.5507","RA_OF_ASC_NODE":"197.7145","LAUNCH_DATE":"2020-02-17","MEAN_MOTION_DOT":"-0.00000587","ECCENTRICITY":"0.00020920","COUNTRY_CODE":"US","DECAY_DATE":null,"TLE_LINE1":"1 45205U 20012AD  21332.90981422 -.00000587  00000-0 -20516-4 0  9997","FILE":"3226391","EPHEMERIS_TYPE":"0","CENTER_NAME":"EARTH","TIME_SYSTEM":"UTC","INCLINATION":"53.0512","OBJECT_NAME":"STARLINK-1208","EPOCH":"2021-11-28T21:50:07.948608","SEMIMAJOR_AXIS":"6925.364","TLE_LINE2":"2 45205  53.0512 197.7145 0002092  74.5713 285.5507 15.06394875 99747","NORAD_CAT_ID":"45205","OBJECT_TYPE":"PAYLOAD","MEAN_MOTION":"15.06394875","OBJECT_ID":"2020-012AD","CLASSIFICATION_TYPE":"U","PERIOD":"95.592","MEAN_ELEMENT_THEORY":"SGP4","APOAPSIS":"548.678","REV_AT_EPOCH":"9974","ELEMENT_SET_NO":"999","GP_ID":"190683214","BSTAR":"-0.00002051600000","RCS_SIZE":"LARGE","PERIAPSIS":"545.780","SITE":"AFETR","MEAN_MOTION_DDOT":"0.0000000000000","ARG_OF_PERICENTER":"74.5713","REF_FRAME":"TEME"},{"OBJECT_NAME":"STARLINK-1209","EPOCH":"2021-11-28T20:54:24.072480","INCLINATION":"53.0536","TIME_SYSTEM":"UTC","CENTER_NAME":"EARTH","EPHEMERIS_TYPE":"0","TLE_LINE2":"2 45206  53.0536 177.9049 0002086  82.6768 277.4458 15.06389680 99046","SEMIMAJOR_AXIS":"6925.380","COUNTRY_CODE":"US","ECCENTRICITY":"0.00020860","MEAN_MOTION_DOT":"0.00000465","LAUNCH_DATE":"2020-02-17","RA_OF_ASC_NODE":"177.9049","MEAN_ANOMALY":"277.4458","FILE":"3226391","TLE_LINE1":"1 45206U 20012AE  21332.87111195  .00000465  00000-0  50111-4 0  9993","DECAY_DATE":null,"GP_ID":"190683464","ELEMENT_SET_NO":"999","REV_AT_EPOCH":"9904","REF_FRAME":"TEME","MEAN_MOTION_DDOT":"0.0000000000000","SITE":"AFETR","ARG_OF_PERICENTER":"82.6768","PERIAPSIS":"545.801","RCS_SIZE":"LARGE","BSTAR":"0.00005011100000","OBJECT_TYPE":"PAYLOAD","NORAD_CAT_ID":"45206","APOAPSIS":"548.690","PERIOD":"95.593","MEAN_ELEMENT_THEORY":"SGP4","CLASSIFICATION_TYPE":"U","OBJECT_ID":"2020-012AE","MEAN_MOTION":"15.06389680"},{"COUNTRY_CODE":"US","ECCENTRICITY":"0.00022280","MEAN_MOTION_DOT":"0.00001184","LAUNCH_DATE":"2020-02-17","RA_OF_ASC_NODE":"197.6166","MEAN_ANOMALY":"281.5361","FILE":"3226391","TLE_LINE1":"1 45207U 20012AF  21332.93192048  .00001184  00000-0  98396-4 0  9993","DECAY_DATE":null,"OBJECT_NAME":"STARLINK-1210","EPOCH":"2021-11-28T22:21:57.929472","INCLINATION":"53.0535","TIME_SYSTEM":"UTC","CENTER_NAME":"EARTH","EPHEMERIS_TYPE":"0","TLE_LINE2":"2 45207  53.0535 197.6166 0002228  78.5878 281.5361 15.06397053 99726","SEMIMAJOR_AXIS":"6925.358","OBJECT_TYPE":"PAYLOAD","NORAD_CAT_ID":"45207","APOAPSIS":"548.766","MEAN_ELEMENT_THEORY":"SGP4","PERIOD":"95.592","CLASSIFICATION_TYPE":"U","OBJECT_ID":"2020-012AF","MEAN_MOTION":"15.06397053","GP_ID":"190684715","ELEMENT_SET_NO":"999","REV_AT_EPOCH":"9972","REF_FRAME":"TEME","SITE":"AFETR","MEAN_MOTION_DDOT":"0.0000000000000","ARG_OF_PERICENTER":"78.5878","PERIAPSIS":"545.680","RCS_SIZE":"LARGE","BSTAR":"0.00009839600000"},{"TLE_LINE1":"1 45208U 20012AG  21332.91608571  .00001084  00000-0  93539-4 0  9998","DECAY_DATE":null,"FILE":"3226391","RA_OF_ASC_NODE":"197.6881","MEAN_ANOMALY":"282.7723","ECCENTRICITY":"0.00021100","COUNTRY_CODE":"US","LAUNCH_DATE":"2020-02-17","MEAN_MOTION_DOT":"0.00001084","TLE_LINE2":"2 45208  52.9984 197.6881 0002110  77.3501 282.7723 15.05592908 99637","SEMIMAJOR_AXIS":"6927.823","CENTER_NAME":"EARTH","EPHEMERIS_TYPE":"0","OBJECT_NAME":"STARLINK-1211","EPOCH":"2021-11-28T21:59:09.805344","INCLINATION":"52.9984","TIME_SYSTEM":"UTC","CLASSIFICATION_TYPE":"U","OBJECT_ID":"2020-012AG","MEAN_MOTION":"15.05592908","APOAPSIS":"551.150","MEAN_ELEMENT_THEORY":"SGP4","PERIOD":"95.643","NORAD_CAT_ID":"45208","OBJECT_TYPE":"PAYLOAD","RCS_SIZE":"LARGE","BSTAR":"0.00009353900000","REF_FRAME":"TEME","SITE":"AFETR","ARG_OF_PERICENTER":"77.3501","MEAN_MOTION_DDOT":"0.0000000000000","PERIAPSIS":"548.227","GP_ID":"190684964","ELEMENT_SET_NO":"999","REV_AT_EPOCH":"9963"},{"TLE_LINE1":"1 45209U 20012AH  21332.89983551  .00003801  00000-0  27172-4 0  9999","DECAY_DATE":null,"FILE":"3226391","MEAN_ANOMALY":"311.9731","RA_OF_ASC_NODE":"125.8036","COUNTRY_CODE":"US","ECCENTRICITY":"0.00012650","LAUNCH_DATE":"2020-02-17","MEAN_MOTION_DOT":"0.00003801","TLE_LINE2":"2 45209  53.0512 125.8036 0001265  48.1396 311.9731 15.76760164100670","SEMIMAJOR_AXIS":"6717.764","CENTER_NAME":"EARTH","EPHEMERIS_TYPE":"0","OBJECT_NAME":"STARLINK-1218","EPOCH":"2021-11-28T21:35:45.788064","TIME_SYSTEM":"UTC","INCLINATION":"53.0512","CLASSIFICATION_TYPE":"U","MEAN_MOTION":"15.76760164","OBJECT_ID":"2020-012AH","APOAPSIS":"340.479","PERIOD":"91.327","MEAN_ELEMENT_THEORY":"SGP4","NORAD_CAT_ID":"45209","OBJECT_TYPE":"PAYLOAD","RCS_SIZE":"LARGE","BSTAR":"0.00002717200000","SITE":"AFETR","MEAN_MOTION_DDOT":"0.0000000000000","ARG_OF_PERICENTER":"48.1396","REF_FRAME":"TEME","PERIAPSIS":"338.779","ELEMENT_SET_NO":"999","GP_ID":"190683714","REV_AT_EPOCH":"10067"},{"TLE_LINE2":"2 45210  53.0541 197.6155 0002074  76.8073 283.3148 15.06399600 99613","SEMIMAJOR_AXIS":"6925.350","OBJECT_NAME":"STARLINK-1219","EPOCH":"2021-11-28T22:27:16.289280","TIME_SYSTEM":"UTC","INCLINATION":"53.0541","CENTER_NAME":"EARTH","EPHEMERIS_TYPE":"0","FILE":"3226391","TLE_LINE1":"1 45210U 20012AJ  21332.93560520  .00000990  00000-0  85372-4 0  9995","DECAY_DATE":null,"COUNTRY_CODE":"US","ECCENTRICITY":"0.00020740","LAUNCH_DATE":"2020-02-17","MEAN_MOTION_DOT":"0.00000990","MEAN_ANOMALY":"283.3148","RA_OF_ASC_NODE":"197.6155","SITE":"AFETR","ARG_OF_PERICENTER":"76.8073","MEAN_MOTION_DDOT":"0.0000000000000","REF_FRAME":"TEME","PERIAPSIS":"545.778","RCS_SIZE":"LARGE","BSTAR":"0.00008537200000","ELEMENT_SET_NO":"999","GP_ID":"190683964","REV_AT_EPOCH":"9961","APOAPSIS":"548.651","PERIOD":"95.592","MEAN_ELEMENT_THEORY":"SGP4","CLASSIFICATION_TYPE":"U","MEAN_MOTION":"15.06399600","OBJECT_ID":"2020-012AJ","OBJECT_TYPE":"PAYLOAD","NORAD_CAT_ID":"45210"},{"RCS_SIZE":"LARGE","BSTAR":"-0.00002242600000","MEAN_MOTION_DDOT":"0.0000000000000","SITE":"AFETR","ARG_OF_PERICENTER":"73.1858","REF_FRAME":"TEME","PERIAPSIS":"545.784","ELEMENT_SET_NO":"999","GP_ID":"190684216","REV_AT_EPOCH":"9967","CLASSIFICATION_TYPE":"U","MEAN_MOTION":"15.06397741","OBJECT_ID":"2020-012AL","APOAPSIS":"548.657","MEAN_ELEMENT_THEORY":"SGP4","PERIOD":"95.592","NORAD_CAT_ID":"45212","OBJECT_TYPE":"PAYLOAD","TLE_LINE2":"2 45212  53.0515 197.7582 0002074  73.1858 286.9358 15.06397741 99674","SEMIMAJOR_AXIS":"6925.355","CENTER_NAME":"EARTH","EPHEMERIS_TYPE":"0","EPOCH":"2021-11-28T21:39:30.680352","OBJECT_NAME":"STARLINK-1231","TIME_SYSTEM":"UTC","INCLINATION":"53.0515","TLE_LINE1":"1 45212U 20012AL  21332.90243843 -.00000616  00000-0 -22426-4 0  9998","DECAY_DATE":null,"FILE":"3226391","MEAN_ANOMALY":"286.9358","RA_OF_ASC_NODE":"197.7582","COUNTRY_CODE":"US","ECCENTRICITY":"0.00020740","LAUNCH_DATE":"2020-02-17","MEAN_MOTION_DOT":"-0.00000616"},{"GP_ID":"190684465","ELEMENT_SET_NO":"999","REV_AT_EPOCH":"9972","REF_FRAME":"TEME","MEAN_MOTION_DDOT":"0.0000000000000","SITE":"AFETR","ARG_OF_PERICENTER":"58.1979","PERIAPSIS":"545.999","RCS_SIZE":"LARGE","BSTAR":"0.00000684860000","OBJECT_TYPE":"PAYLOAD","NORAD_CAT_ID":"45213","APOAPSIS":"548.383","PERIOD":"95.592","MEAN_ELEMENT_THEORY":"SGP4","CLASSIFICATION_TYPE":"U","OBJECT_ID":"2020-012AM","MEAN_MOTION":"15.06407362","OBJECT_NAME":"STARLINK-1232","EPOCH":"2021-11-28T21:44:48.852672","INCLINATION":"53.0541","TIME_SYSTEM":"UTC","CENTER_NAME":"EARTH","EPHEMERIS_TYPE":"0","TLE_LINE2":"2 45213  53.0541 197.7522 0001721  58.1979 301.9177 15.06407362 99727","SEMIMAJOR_AXIS":"6925.326","COUNTRY_CODE":"US","ECCENTRICITY":"0.00017210","LAUNCH_DATE":"2020-02-17","MEAN_MOTION_DOT":"-0.00000180","RA_OF_ASC_NODE":"197.7522","MEAN_ANOMALY":"301.9177","FILE":"3226391","TLE_LINE1":"1 45213U 20012AM  21332.90612098 -.00000180  00000-0  68486-5 0  9993","DECAY_DATE":null},{"LAUNCH_DATE":"2020-02-17","MEAN_MOTION_DOT":"0.00000938","COUNTRY_CODE":"US","ECCENTRICITY":"0.00018510","RA_OF_ASC_NODE":"198.7582","MEAN_ANOMALY":"285.2457","FILE":"3226391","DECAY_DATE":null,"TLE_LINE1":"1 45214U 20012AN  21332.67759258  .00000938  00000-0  81841-4 0  9997","INCLINATION":"53.0529","TIME_SYSTEM":"UTC","EPOCH":"2021-11-28T16:15:43.998912","OBJECT_NAME":"STARLINK-1233","EPHEMERIS_TYPE":"0","CENTER_NAME":"EARTH","SEMIMAJOR_AXIS":"6925.338","TLE_LINE2":"2 45214  53.0529 198.7582 0001851  74.8737 285.2457 15.06403288 99685","OBJECT_TYPE":"PAYLOAD","NORAD_CAT_ID":"45214","PERIOD":"95.592","MEAN_ELEMENT_THEORY":"SGP4","APOAPSIS":"548.485","OBJECT_ID":"2020-012AN","MEAN_MOTION":"15.06403288","CLASSIFICATION_TYPE":"U","REV_AT_EPOCH":"9968","GP_ID":"190683215","ELEMENT_SET_NO":"999","PERIAPSIS":"545.922","REF_FRAME":"TEME","ARG_OF_PERICENTER":"74.8737","SITE":"AFETR","MEAN_MOTION_DDOT":"0.0000000000000","BSTAR":"0.00008184100000","RCS_SIZE":"LARGE"}];
